{"type": "FeatureCollection", "features": [ {"type": "Feature", "properties": {"norad_id": 58662, "name": "TIANMU-1 21", "group": "weather", "lat": 27.146762663610208, "lon": 110.58138186172609, "alt_km": 473.7429639673801, "timestamp": "2025-12-26T23:26:41.800509+00:00", "meta": {"OBJECT_NAME": "TIANMU-1 21", "OBJECT_ID": "2023-208C", "EPOCH": "2025-12-26T13:55:08.860224", "MEAN_MOTION": 15.31850356, "ECCENTRICITY": 0.00065346, "INCLINATION": 97.4372, "RA_OF_ASC_NODE": 114.0236, "ARG_OF_PERICENTER": 203.462, "MEAN_ANOMALY": 156.6325, "EPHEMERIS_TYPE": 0, "CLASSIFICATION_TYPE": "U", "NORAD_CAT_ID": 58662, "ELEMENT_SET_NO": 999, "REV_AT_EPOCH": 11111, "BSTAR": 0.00040395798, "MEAN_MOTION_DOT": 0.00012358, "MEAN_MOTION_DDOT": 0}, "tle": {"line1": "1 58662U 23208C   25360.57996366  .00012358  00000+0  40396-3 0  9992", "line2": "2 58662  97.4372 114.0236 0006534 203.4620 156.6325 15.31850356111113"}}, "geometry": {"type": "Point", "coordinates": [110.58138186172609, 27.146762663610208]}}, {"type": "Feature", "properties": {"norad_id": 58663, "name": "TIANMU-1 22", "group": "weather", "lat": 72.24042749109516, "lon": -43.887431883111084, "alt_km": 476.0373447658367, "timestamp": "2025-12-26T23:26:41.800518+00:00", "meta": {"OBJECT_NAME": "TIANMU-1 22", "OBJECT_ID": "2023-208D", "EPOCH": "2025-12-26T13:33:02.513952", "MEAN_MOTION": 15.27838853, "ECCENTRICITY": 0.00030725, "INCLINATION": 97.4379, "RA_OF_ASC_NODE": 111.6289, "ARG_OF_PERICENTER": 217.4776, "MEAN_ANOMALY": 142.6249, "EPHEMERIS_TYPE": 0, "CLASSIFICATION_TYPE": "U", "NORAD_CAT_ID": 58663, "ELEMENT_SET_NO": 999, "REV_AT_EPOCH": 11094, "BSTAR": 0.00033764366, "MEAN_MOTION_DOT": 9.107e-05, "MEAN_MOTION_DDOT": 0}, "tle": {"line1": "1 58663U 23208D   25360.56461243  .00009107  00000+0  33764-3 0  9992", "line2": "2 58663  97.4379 111.6289 0003072 217.4776 142.6249 15.27838853110946"}}, "geometry": {"type": "Point", "coordinates": [-43.887431883111084, 72.24042749109516]}}, {"type": "Feature", "properties": {"norad_id": 58700, "name": "TIANMU-1 15", "group": "weather", "lat": 69.55090824659028, "lon": 161.8099583499347, "alt_km": 489.1914419338009, "timestamp": "2025-12-26T23:26:41.800527+00:00", "meta": {"OBJECT_NAME": "TIANMU-1 15", "OBJECT_ID": "2024-004A", "EPOCH": "2025-12-26T15:15:31.423968", "MEAN_MOTION": 15.24593311, "ECCENTRICITY": 0.00061245, "INCLINATION": 97.4631, "RA_OF_ASC_NODE": 182.0533, "ARG_OF_PERICENTER": 230.9787, "MEAN_ANOMALY": 129.0905, "EPHEMERIS_TYPE": 0, "CLASSIFICATION_TYPE": "U", "NORAD_CAT_ID": 58700, "ELEMENT_SET_NO": 999, "REV_AT_EPOCH": 10946, "BSTAR": 0.00030544912, "MEAN_MOTION_DOT": 7.462e-05, "MEAN_MOTION_DDOT": 0}, "tle": {"line1": "1 58700U 24004A   25360.63578037  .00007462  00000+0  30545-3 0  9993", "line2": "2 58700  97.4631 182.0533 0006124 230.9787 129.0905 15.24593311109463"}}, "geometry": {"type": "Point", "coordinates": [161.8099583499347, 69.55090824659028]}}, {"type": "Feature", "properties": {"norad_id": 58701, "name": "TIANMU-1 16", "group": "weather", "lat": 25.84031903324768, "lon": 5.407341192365697, "alt_km": 490.4803062057017, "timestamp": "2025-12-26T23:26:41.800537+00:00", "meta": {"OBJECT_NAME": "TIANMU-1 16", "OBJECT_ID": "2024-004B", "EPOCH": "2025-12-26T14:53:46.408992", "MEAN_MOTION": 15.24620187, "ECCENTRICITY": 0.00044641, "INCLINATION": 97.4571, "RA_OF_ASC_NODE": 181.4159, "ARG_OF_PERICENTER": 232.7252, "MEAN_ANOMALY": 127.3579, "EPHEMERIS_TYPE": 0, "CLASSIFICATION_TYPE": "U", "NORAD_CAT_ID": 58701, "ELEMENT_SET_NO": 999, "REV_AT_EPOCH": 10946, "BSTAR": 0.00029736752, "MEAN_MOTION_DOT": 7.267e-05, "MEAN_MOTION_DDOT": 0}, "tle": {"line1": "1 58701U 24004B   25360.62067603  .00007267  00000+0  29737-3 0  9999", "line2": "2 58701  97.4571 181.4159 0004464 232.7252 127.3579 15.24620187109466"}}, "geometry": {"type": "Point", "coordinates": [5.407341192365697, 25.84031903324768]}}, {"type": "Feature", "properties": {"norad_id": 58702, "name": "TIANMU-1 17", "group": "weather", "lat": -59.81644788847574, "lon": -10.832912937734543, "alt_km": 496.47915442041085, "timestamp": "2025-12-26T23:26:41.800546+00:00", "meta": {"OBJECT_NAME": "TIANMU-1 17", "OBJECT_ID": "2024-004C", "EPOCH": "2025-12-26T19:14:32.646336", "MEAN_MOTION": 15.2466611, "ECCENTRICITY": 0.0003642, "INCLINATION": 97.4605, "RA_OF_ASC_NODE": 182.0134, "ARG_OF_PERICENTER": 232.5163, "MEAN_ANOMALY": 127.5744, "EPHEMERIS_TYPE": 0, "CLASSIFICATION_TYPE": "U", "NORAD_CAT_ID": 58702, "ELEMENT_SET_NO": 999, "REV_AT_EPOCH": 10948, "BSTAR": 0.00032273, "MEAN_MOTION_DOT": 7.904e-05, "MEAN_MOTION_DDOT": 0}, "tle": {"line1": "1 58702U 24004C   25360.80176674  .00007904  00000+0  32273-3 0  9996", "line2": "2 58702  97.4605 182.0134 0003642 232.5163 127.5744 15.24666110109485"}}, "geometry": {"type": "Point", "coordinates": [-10.832912937734543, -59.81644788847574]}}, {"type": "Feature", "properties": {"norad_id": 58703, "name": "TIANMU-1 18", "group": "weather", "lat": -28.47517448029318, "lon": -173.53696344652656, "alt_km": 498.2376863618829, "timestamp": "2025-12-26T23:26:41.800556+00:00", "meta": {"OBJECT_NAME": "TIANMU-1 18", "OBJECT_ID": "2024-004D", "EPOCH": "2025-12-26T15:41:42.228672", "MEAN_MOTION": 15.24646213, "ECCENTRICITY": 0.00030322, "INCLINATION": 97.4622, "RA_OF_ASC_NODE": 182.0646, "ARG_OF_PERICENTER": 229.4643, "MEAN_ANOMALY": 130.6331, "EPHEMERIS_TYPE": 0, "CLASSIFICATION_TYPE": "U", "NORAD_CAT_ID": 58703, "ELEMENT_SET_NO": 999, "REV_AT_EPOCH": 10946, "BSTAR": 0.00031460831, "MEAN_MOTION_DOT": 7.698e-05, "MEAN_MOTION_DDOT": 0}, "tle": {"line1": "1 58703U 24004D   25360.65396098  .00007698  00000+0  31461-3 0  9992", "line2": "2 58703  97.4622 182.0646 0003032 229.4643 130.6331 15.24646213109461"}}, "geometry": {"type": "Point", "coordinates": [-173.53696344652656, -28.47517448029318]}}, {"type": "Feature", "properties": {"norad_id": 58990, "name": "INSAT-3DS", "group": "weather", "lat": 0.06418693595361633, "lon": 169.47253345587754, "alt_km": 35787.93625392521, "timestamp": "2025-12-26T23:26:41.800566+00:00", "meta": {"OBJECT_NAME": "INSAT-3DS", "OBJECT_ID": "2024-033A", "EPOCH": "2025-12-26T08:17:23.335008", "MEAN_MOTION": 1.00270939, "ECCENTRICITY": 0.00013251, "INCLINATION": 0.0628, "RA_OF_ASC_NODE": 99.0061, "ARG_OF_PERICENTER": 177.0285, "MEAN_ANOMALY": 25.5123, "EPHEMERIS_TYPE": 0, "CLASSIFICATION_TYPE": "U", "NORAD_CAT_ID": 58990, "ELEMENT_SET_NO": 999, "REV_AT_EPOCH": 4533, "BSTAR": 0, "MEAN_MOTION_DOT": -1.34e-06, "MEAN_MOTION_DDOT": 0}, "tle": {"line1": "1 58990U 24033A   25360.34540897 -.00000134  00000+0  00000+0 0  9996", "line2": "2 58990   0.0628  99.0061 0001325 177.0285  25.5123  1.00270939 45339"}}, "geometry": {"type": "Point", "coordinates": [169.47253345587754, 0.06418693595361633]}}, {"type": "Feature", "properties": {"norad_id": 59051, "name": "METEOR-M2 4", "group": "weather", "lat": -40.29970897194878, "lon": -34.8937540338672, "alt_km": 819.1699196521186, "timestamp": "2025-12-26T23:26:41.800575+00:00", "meta": {"OBJECT_NAME": "METEOR-M2 4", "OBJECT_ID": "2024-039A", "EPOCH": "2025-12-26T15:11:43.022112", "MEAN_MOTION": 14.22403409, "ECCENTRICITY": 0.00063323, "INCLINATION": 98.6786, "RA_OF_ASC_NODE": 317.3255, "ARG_OF_PERICENTER": 316.3935, "MEAN_ANOMALY": 43.6742, "EPHEMERIS_TYPE": 0, "CLASSIFICATION_TYPE": "U", "NORAD_CAT_ID": 59051, "ELEMENT_SET_NO": 999, "REV_AT_EPOCH": 9473, "BSTAR": 4.2088416e-05, "MEAN_MOTION_DOT": 5e-07, "MEAN_MOTION_DDOT": 0}, "tle": {"line1": "1 59051U 24039A   25360.63313683  .00000050  00000+0  42088-4 0  9997", "line2": "2 59051  98.6786 317.3255 0006332 316.3935  43.6742 14.22403409 94734"}}, "geometry": {"type": "Point", "coordinates": [-34.8937540338672, -40.29970897194878]}}, {"type": "Feature", "properties": {"norad_id": 60133, "name": "GOES 19", "group": "weather", "lat": 0.009601271754642288, "lon": 12.192053255216194, "alt_km": 35785.41422705134, "timestamp": "2025-12-26T23:26:41.800585+00:00", "meta": {"OBJECT_NAME": "GOES 19", "OBJECT_ID": "2024-119A", "EPOCH": "2025-12-26T12:35:56.409216", "MEAN_MOTION": 1.00266665, "ECCENTRICITY": 9.47e-05, "INCLINATION": 0.0307, "RA_OF_ASC_NODE": 217.6802, "ARG_OF_PERICENTER": 97.1965, "MEAN_ANOMALY": 254.1873, "EPHEMERIS_TYPE": 0, "CLASSIFICATION_TYPE": "U", "NORAD_CAT_ID": 60133, "ELEMENT_SET_NO": 999, "REV_AT_EPOCH": 523, "BSTAR": 0, "MEAN_MOTION_DOT": -2.26e-06, "MEAN_MOTION_DDOT": 0}, "tle": {"line1": "1 60133U 24119A   25360.52495844 -.00000226  00000+0  00000+0 0  9996", "line2": "2 60133   0.0307 217.6802 0000947  97.1965 254.1873  1.00266665  5230"}}, "geometry": {"type": "Point", "coordinates": [12.192053255216194, 0.009601271754642288]}}, {"type": "Feature", "properties": {"norad_id": 65815, "name": "FENGYUN 3H", "group": "weather", "lat": 68.56204911859986, "lon": -82.57964516849025, "alt_km": 818.4813368316027, "timestamp": "2025-12-26T23:26:41.800596+00:00", "meta": {"OBJECT_NAME": "FENGYUN 3H", "OBJECT_ID": "2025-219A", "EPOCH": "2025-12-26T18:02:29.052096", "MEAN_MOTION": 14.19908441, "ECCENTRICITY": 8.72e-05, "INCLINATION": 98.6602, "RA_OF_ASC_NODE": 300.039, "ARG_OF_PERICENTER": 109.9263, "MEAN_ANOMALY": 250.2007, "EPHEMERIS_TYPE": 0, "CLASSIFICATION_TYPE": "U", "NORAD_CAT_ID": 65815, "ELEMENT_SET_NO": 999, "REV_AT_EPOCH": 1291, "BSTAR": 7.0269e-05, "MEAN_MOTION_DOT": 1.06e-06, "MEAN_MOTION_DDOT": 0}, "tle": {"line1": "1 65815U 25219A   25360.75172514  .00000106  00000+0  70269-4 0  9996", "line2": "2 65815  98.6602 300.0390 0000872 109.9263 250.2007 14.19908441 12910"}}, "geometry": {"type": "Point", "coordinates": [-82.57964516849025, 68.56204911859986]}}]}